ADRAS-J                 
1 58992U 24034A   24220.47061175  .00004387  00000+0  40412-3 0  9992
2 58992  98.2155 195.8464 0041678 238.4393 121.2754 14.94625328 25520
